{
  "type": "FeatureCollection",
  "features": [
    {
      "type": "Feature",
      "properties": {
        "norad_id": 35023,
        "name": "COSMOS 2251 DEB",
        "group": "cosmos-2251-debris",
        "lat": 73.91654288144807,
        "lon": -70.62973280301937,
        "alt_km": 597.062815135213,
        "timestamp": "2025-12-15T20:48:54.280185+00:00",
        "meta_object_name": "COSMOS 2251 DEB",
        "meta_object_id": "1993-036AGL",
        "meta_epoch": "2025-12-14T14:00:45.766656",
        "meta_mean_motion": 14.95177195,
        "meta_eccentricity": 0.00339089,
        "meta_inclination": 74.0377,
        "meta_ra_of_asc_node": 208.867,
        "meta_arg_of_pericenter": 286.3336,
        "meta_mean_anomaly": 96.2717,
        "meta_ephemeris_type": 0,
        "meta_classification_type": "U",
        "meta_norad_cat_id": 35023,
        "meta_element_set_no": 999,
        "meta_rev_at_epoch": 88307,
        "meta_bstar": 0.0010462631,
        "meta_mean_motion_dot": 0.00011606,
        "meta_mean_motion_ddot": 0,
        "tle_line1": "1 35023U 93036AGL 25348.58386304  .00011606  00000+0  10463-2 0  9992",
        "tle_line2": "2 35023  74.0377 208.8670 0033908 286.3336  96.2717 14.95177195883075"
      },
      "geometry": {
        "type": "Point",
        "coordinates": [
          -70.62973280301937,
          73.91654288144807
        ]
      }
    },
    {
      "type": "Feature",
      "properties": {
        "norad_id": 35025,
        "name": "COSMOS 2251 DEB",
        "group": "cosmos-2251-debris",
        "lat": -73.920966778987,
        "lon": -35.036721020280126,
        "alt_km": 628.4628075909077,
        "timestamp": "2025-12-15T20:48:54.280195+00:00",
        "meta_object_name": "COSMOS 2251 DEB",
        "meta_object_id": "1993-036AGN",
        "meta_epoch": "2025-12-14T10:58:59.518848",
        "meta_mean_motion": 14.72720233,
        "meta_eccentricity": 0.00852576,
        "meta_inclination": 73.939,
        "meta_ra_of_asc_node": 59.5616,
        "meta_arg_of_pericenter": 332.0086,
        "meta_mean_anomaly": 27.6512,
        "meta_ephemeris_type": 0,
        "meta_classification_type": "U",
        "meta_norad_cat_id": 35025,
        "meta_element_set_no": 999,
        "meta_rev_at_epoch": 88668,
        "meta_bstar": 0.00044102705,
        "meta_mean_motion_dot": 2.945e-05,
        "meta_mean_motion_ddot": 0,
        "tle_line1": "1 35025U 93036AGN 25348.45763332  .00002945  00000+0  44103-3 0  9995",
        "tle_line2": "2 35025  73.9390  59.5616 0085257 332.0086  27.6512 14.72720233886689"
      },
      "geometry": {
        "type": "Point",
        "coordinates": [
          -35.036721020280126,
          -73.920966778987
        ]
      }
    },
    {
      "type": "Feature",
      "properties": {
        "norad_id": 35026,
        "name": "COSMOS 2251 DEB",
        "group": "cosmos-2251-debris",
        "lat": -68.21605206213437,
        "lon": -92.80601009529059,
        "alt_km": 765.6019971476962,
        "timestamp": "2025-12-15T20:48:54.280205+00:00",
        "meta_object_name": "COSMOS 2251 DEB",
        "meta_object_id": "1993-036AGP",
        "meta_epoch": "2025-12-13T06:41:51.254880",
        "meta_mean_motion": 14.53623986,
        "meta_eccentricity": 0.00823222,
        "meta_inclination": 74.0467,
        "meta_ra_of_asc_node": 317.7836,
        "meta_arg_of_pericenter": 71.0972,
        "meta_mean_anomaly": 355.7631,
        "meta_ephemeris_type": 0,
        "meta_classification_type": "U",
        "meta_norad_cat_id": 35026,
        "meta_element_set_no": 999,
        "meta_rev_at_epoch": 88151,
        "meta_bstar": 0.0001179875,
        "meta_mean_motion_dot": 4.86e-06,
        "meta_mean_motion_ddot": 0,
        "tle_line1": "1 35026U 93036AGP 25347.27906545  .00000486  00000+0  11799-3 0  9993",
        "tle_line2": "2 35026  74.0467 317.7836 0082322  71.0972 355.7631 14.53623986881514"
      },
      "geometry": {
        "type": "Point",
        "coordinates": [
          -92.80601009529059,
          -68.21605206213437
        ]
      }
    },
    {
      "type": "Feature",
      "properties": {
        "norad_id": 35028,
        "name": "COSMOS 2251 DEB",
        "group": "cosmos-2251-debris",
        "lat": 66.02362093218471,
        "lon": -54.89599279130953,
        "alt_km": 648.8789383956109,
        "timestamp": "2025-12-15T20:48:54.280215+00:00",
        "meta_object_name": "COSMOS 2251 DEB",
        "meta_object_id": "1993-036AGR",
        "meta_epoch": "2025-12-13T04:31:14.272896",
        "meta_mean_motion": 14.56570709,
        "meta_eccentricity": 0.00824622,
        "meta_inclination": 74.0384,
        "meta_ra_of_asc_node": 270.1287,
        "meta_arg_of_pericenter": 43.6868,
        "meta_mean_anomaly": 26.0271,
        "meta_ephemeris_type": 0,
        "meta_classification_type": "U",
        "meta_norad_cat_id": 35028,
        "meta_element_set_no": 999,
        "meta_rev_at_epoch": 88292,
        "meta_bstar": 0.0001683276,
        "meta_mean_motion_dot": 7.54e-06,
        "meta_mean_motion_ddot": 0,
        "tle_line1": "1 35028U 93036AGR 25347.18835964  .00000754  00000+0  16833-3 0  9993",
        "tle_line2": "2 35028  74.0384 270.1287 0082462  43.6868  26.0271 14.56570709882921"
      },
      "geometry": {
        "type": "Point",
        "coordinates": [
          -54.89599279130953,
          66.02362093218471
        ]
      }
    },
    {
      "type": "Feature",
      "properties": {
        "norad_id": 35031,
        "name": "COSMOS 2251 DEB",
        "group": "cosmos-2251-debris",
        "lat": 40.68983244930877,
        "lon": 59.25502008179001,
        "alt_km": 772.3823900940451,
        "timestamp": "2025-12-15T20:48:54.280225+00:00",
        "meta_object_name": "COSMOS 2251 DEB",
        "meta_object_id": "1993-036AGU",
        "meta_epoch": "2025-12-14T10:47:36.095712",
        "meta_mean_motion": 14.3829612,
        "meta_eccentricity": 0.00189509,
        "meta_inclination": 74.0381,
        "meta_ra_of_asc_node": 256.1121,
        "meta_arg_of_pericenter": 349.2391,
        "meta_mean_anomaly": 10.8355,
        "meta_ephemeris_type": 0,
        "meta_classification_type": "U",
        "meta_norad_cat_id": 35031,
        "meta_element_set_no": 999,
        "meta_rev_at_epoch": 65308,
        "meta_bstar": 0.00022777263,
        "meta_mean_motion_dot": 6.68e-06,
        "meta_mean_motion_ddot": 0,
        "tle_line1": "1 35031U 93036AGU 25348.44972333  .00000668  00000+0  22777-3 0  9997",
        "tle_line2": "2 35031  74.0381 256.1121 0018950 349.2391  10.8355 14.38296120653089"
      },
      "geometry": {
        "type": "Point",
        "coordinates": [
          59.25502008179001,
          40.68983244930877
        ]
      }
    },
    {
      "type": "Feature",
      "properties": {
        "norad_id": 35032,
        "name": "COSMOS 2251 DEB",
        "group": "cosmos-2251-debris",
        "lat": -50.03659998380505,
        "lon": -158.5182074341877,
        "alt_km": 658.5576129992487,
        "timestamp": "2025-12-15T20:48:54.280235+00:00",
        "meta_object_name": "COSMOS 2251 DEB",
        "meta_object_id": "1993-036AGV",
        "meta_epoch": "2025-12-14T19:52:23.160576",
        "meta_mean_motion": 14.58745968,
        "meta_eccentricity": 0.00682524,
        "meta_inclination": 73.8521,
        "meta_ra_of_asc_node": 3.2556,
        "meta_arg_of_pericenter": 214.2465,
        "meta_mean_anomaly": 322.9329,
        "meta_ephemeris_type": 0,
        "meta_classification_type": "U",
        "meta_norad_cat_id": 35032,
        "meta_element_set_no": 999,
        "meta_rev_at_epoch": 87704,
        "meta_bstar": 0.00078629942,
        "meta_mean_motion_dot": 3.761e-05,
        "meta_mean_motion_ddot": 0,
        "tle_line1": "1 35032U 93036AGV 25348.82804584  .00003761  00000+0  78630-3 0  9998",
        "tle_line2": "2 35032  73.8521   3.2556 0068252 214.2465 322.9329 14.58745968877042"
      },
      "geometry": {
        "type": "Point",
        "coordinates": [
          -158.5182074341877,
          -50.03659998380505
        ]
      }
    },
    {
      "type": "Feature",
      "properties": {
        "norad_id": 35033,
        "name": "COSMOS 2251 DEB",
        "group": "cosmos-2251-debris",
        "lat": 11.26165277911769,
        "lon": -12.577457629296068,
        "alt_km": 726.8810501971366,
        "timestamp": "2025-12-15T20:48:54.280246+00:00",
        "meta_object_name": "COSMOS 2251 DEB",
        "meta_object_id": "1993-036AGW",
        "meta_epoch": "2025-12-14T19:13:10.523136",
        "meta_mean_motion": 14.50941129,
        "meta_eccentricity": 0.00144614,
        "meta_inclination": 74.0257,
        "meta_ra_of_asc_node": 172.6985,
        "meta_arg_of_pericenter": 279.0961,
        "meta_mean_anomaly": 80.8563,
        "meta_ephemeris_type": 0,
        "meta_classification_type": "U",
        "meta_norad_cat_id": 35033,
        "meta_element_set_no": 999,
        "meta_rev_at_epoch": 65957,
        "meta_bstar": 0.00063074773,
        "meta_mean_motion_dot": 2.468e-05,
        "meta_mean_motion_ddot": 0,
        "tle_line1": "1 35033U 93036AGW 25348.80081624  .00002468  00000+0  63075-3 0  9999",
        "tle_line2": "2 35033  74.0257 172.6985 0014461 279.0961  80.8563 14.50941129659577"
      },
      "geometry": {
        "type": "Point",
        "coordinates": [
          -12.577457629296068,
          11.26165277911769
        ]
      }
    }
  ]
}